IRIDIUM 150             
1 43257U 18030J   23312.43576878  .00000591  00000+0  20405-3 0  9990
2 43257  86.3953 328.2479 0002256 101.4374 258.7075 14.34223363293747
IRIDIUM 143             
1 43258U 18030K   23312.55630125  .00000562  00000+0  19359-3 0  9994
2 43258  86.3957 328.2522 0002440  94.4810 265.6664 14.34220907293698
IRIDIUM 161             
1 43478U 18047C   23312.53382775  .00000339  00000+0  94820-4 0  9998
2 43478  86.4459 126.2348 0002004  90.7516 269.3914 14.43279396287878
IRIDIUM 152             
1 43479U 18047D   23312.52902100  .00000236  00000+0  77051-4 0  9991
2 43479  86.3932 126.0965 0002337  89.1472 270.9992 14.34219926286088
IRIDIUM 147             
1 43480U 18047E   23312.53534789  .00000256  00000+0  84214-4 0  9999
2 43480  86.3934 126.0824 0001839  87.5600 272.5806 14.34218983286081
IRIDIUM 110             
1 43481U 18047F   23312.54168800  .00000256  00000+0  84451-4 0  9991
2 43481  86.3937 126.1467 0001734  90.2663 269.8732 14.34218461286070
IRIDIUM 162             
1 43482U 18047G   23312.52755590  .00000345  00000+0  96460-4 0  9990
2 43482  86.4458 126.1405 0002032  90.7976 269.3457 14.43284922287868
IRIDIUM 160             
1 43569U 18061A   23312.48752035  .00000777  00000+0  27043-3 0  9997
2 43569  86.3937  94.5253 0002191  84.4928 275.6517 14.34222279276960
